CTC2_L_00354016-03
1 49773U 23975WR  26070.40846065  .00000000  00000+0  00000-0 0  9993
2 49773  50.0000 180.0000 0000000   0.0000   0.0000 13.29142335    10
CTC2_L_00354016-04
1 49774U 24936D   26070.40846065  .00000000  00000+0  00000-0 0  9992
2 49774  50.0000 180.0000 0000000   0.0000  90.0000 13.29142335    10
CTC2_L_00354017-01
1 49775U 25565BV  26070.40846065  .00000000  00000+0  00000-0 0  9992
2 49775  50.0000 192.0000 0000000   0.0000 192.0000 13.29142335    17
CTC2_L_00354017-02
1 49776U 23067BR  26070.40846065  .00000000  00000+0  00000-0 0  9998
2 49776  50.0000 192.0000 0000000   0.0000 282.0000 13.29142335    18
CTC2_L_00354017-03
1 49777U 23001UI  26070.40846065  .00000000  00000+0  00000-0 0  9997
2 49777  50.0000 192.0000 0000000   0.0000  12.0000 13.29142335    10
CTC2_L_00354017-04
1 49778U 26120EF  26070.40846065  .00000000  00000+0  00000-0 0  9993
2 49778  50.0000 192.0000 0000000   0.0000 102.0000 13.29142335    11
CTC2_L_00354018-01
1 49779U 26737BV  26070.40846065  .00000000  00000+0  00000-0 0  9998
2 49779  50.0000 204.0000 0000000   0.0000 204.0000 13.29142335    19
CTC2_L_00354018-02
1 49780U 24337TK  26070.40846065  .00000000  00000+0  00000-0 0  9994
2 49780  50.0000 204.0000 0000000   0.0000 294.0000 13.29142335    10
CTC2_L_00354018-03
1 49781U 25773GS  26070.40846065  .00000000  00000+0  00000-0 0  9990
2 49781  50.0000 204.0000 0000000   0.0000  24.0000 13.29142335    12
CTC2_L_00354018-04
1 49782U 24691KY  26070.40846065  .00000000  00000+0  00000-0 0  9999
2 49782  50.0000 204.0000 0000000   0.0000 114.0000 13.29142335    13
CTC2_L_00354019-01
1 49783U 26776UZ  26070.40846065  .00000000  00000+0  00000-0 0  9996
2 49783  50.0000 216.0000 0000000   0.0000 216.0000 13.29142335    10
CTC2_L_00354019-02
1 49784U 26534UO  26070.40846065  .00000000  00000+0  00000-0 0  9999
2 49784  50.0000 216.0000 0000000   0.0000 306.0000 13.29142335    11
CTC2_L_00354019-03
1 49785U 24470WO  26070.40846065  .00000000  00000+0  00000-0 0  9997
2 49785  50.0000 216.0000 0000000   0.0000  36.0000 13.29142335    12
CTC2_L_00354019-04
1 49786U 23537PQ  26070.40846065  .00000000  00000+0  00000-0 0  9991
2 49786  50.0000 216.0000 0000000   0.0000 126.0000 13.29142335    13
CTC2_L_00354020-01
1 49787U 22710CY  26070.40846065  .00000000  00000+0  00000-0 0  9994
2 49787  50.0000 228.0000 0000000   0.0000 228.0000 13.29142335    10
CTC2_L_00354020-02
1 49788U 25701HR  26070.40846065  .00000000  00000+0  00000-0 0  9998
2 49788  50.0000 228.0000 0000000   0.0000 318.0000 13.29142335    11
CTC2_L_00354020-03
1 49789U 24332HP  26070.40846065  .00000000  00000+0  00000-0 0  9998
2 49789  50.0000 228.0000 0000000   0.0000  48.0000 13.29142335    12
CTC2_L_00354020-04
1 49790U 26918KQ  26070.40846065  .00000000  00000+0  00000-0 0  9992
2 49790  50.0000 228.0000 0000000   0.0000 138.0000 13.29142335    14
CTC2_L_00354021-01
1 49791U 22289H   26070.40846065  .00000000  00000+0  00000-0 0  9990
2 49791  50.0000 240.0000 0000000   0.0000 240.0000 13.29142335    13
CTC2_L_00354021-02
1 49792U 22917PE  26070.40846065  .00000000  00000+0  00000-0 0  9999
2 49792  50.0000 240.0000 0000000   0.0000 330.0000 13.29142335    14
CTC2_L_00354021-03
1 49793U 22756LT  26070.40846065  .00000000  00000+0  00000-0 0  9991
2 49793  50.0000 240.0000 0000000   0.0000  60.0000 13.29142335    15
CTC2_L_00354021-04
1 49794U 23008DL  26070.40846065  .00000000  00000+0  00000-0 0  9993
2 49794  50.0000 240.0000 0000000   0.0000 150.0000 13.29142335    16
CTC2_L_00354022-01
1 49795U 25214YS  26070.40846065  .00000000  00000+0  00000-0 0  9995
2 49795  50.0000 252.0000 0000000   0.0000 252.0000 13.29142335    13
CTC2_L_00354022-02
1 49796U 26569VN  26070.40846065  .00000000  00000+0  00000-0 0  9990
2 49796  50.0000 252.0000 0000000   0.0000 342.0000 13.29142335    14
CTC2_L_00354022-03
1 49797U 25206DH  26070.40846065  .00000000  00000+0  00000-0 0  9998
2 49797  50.0000 252.0000 0000000   0.0000  72.0000 13.29142335    15
CTC2_L_00354022-04
1 49798U 24810BR  26070.40846065  .00000000  00000+0  00000-0 0  9999
2 49798  50.0000 252.0000 0000000   0.0000 162.0000 13.29142335    16
CTC2_L_00354023-01
1 49799U 22029EG  26070.40846065  .00000000  00000+0  00000-0 0  9990
2 49799  50.0000 264.0000 0000000   0.0000 264.0000 13.29142335    13
CTC2_L_00354023-02
1 49800U 23665KL  26070.40846065  .00000000  00000+0  00000-0 0  9990
2 49800  50.0000 264.0000 0000000   0.0000 354.0000 13.29142335    16
CTC2_L_00354023-03
1 49801U 26132JF  26070.40846065  .00000000  00000+0  00000-0 0  9993
2 49801  50.0000 264.0000 0000000   0.0000  84.0000 13.29142335    17
CTC2_L_00354023-04
1 49802U 24542ET  26070.40846065  .00000000  00000+0  00000-0 0  9997
2 49802  50.0000 264.0000 0000000   0.0000 174.0000 13.29142335    18
CTC2_L_00354024-01
1 49803U 24227BH  26070.40846065  .00000000  00000+0  00000-0 0  9998
2 49803  50.0000 276.0000 0000000   0.0000 276.0000 13.29142335    15
CTC2_L_00354024-02
1 49804U 25296KI  26070.40846065  .00000000  00000+0  00000-0 0  9996
2 49804  50.0000 276.0000 0000000   0.0000   6.0000 13.29142335    17
CTC2_L_00354024-03
1 49805U 26134JF  26070.40846065  .00000000  00000+0  00000-0 0  9999
2 49805  50.0000 276.0000 0000000   0.0000  96.0000 13.29142335    17
CTC2_L_00354024-04
1 49806U 26211HL  26070.40846065  .00000000  00000+0  00000-0 0  9996
2 49806  50.0000 276.0000 0000000   0.0000 186.0000 13.29142335    18
CTC2_L_00354025-01
1 49807U 25222FM  26070.40846065  .00000000  00000+0  00000-0 0  9998
2 49807  50.0000 288.0000 0000000   0.0000 288.0000 13.29142335    15
CTC2_L_00354025-02
1 49808U 22963GB  26070.40846065  .00000000  00000+0  00000-0 0  9998
2 49808  50.0000 288.0000 0000000   0.0000  18.0000 13.29142335    17
CTC2_L_00354025-03
1 49809U 24691CX  26070.40846065  .00000000  00000+0  00000-0 0  9999
2 49809  50.0000 288.0000 0000000   0.0000 108.0000 13.29142335    18
CTC2_L_00354025-04
1 49810U 26897TD  26070.40846065  .00000000  00000+0  00000-0 0  9991
2 49810  50.0000 288.0000 0000000   0.0000 198.0000 13.29142335    19
CTC2_L_00354026-01
1 49811U 23279YD  26070.40846065  .00000000  00000+0  00000-0 0  9993
2 49811  50.0000 300.0000 0000000   0.0000 300.0000 13.29142335    10
CTC2_L_00354026-02
1 49812U 25039OD  26070.40846065  .00000000  00000+0  00000-0 0  9990
2 49812  50.0000 300.0000 0000000   0.0000  30.0000 13.29142335    11
CTC2_L_00354026-03
1 49813U 25019EF  26070.40846065  .00000000  00000+0  00000-0 0  9999
2 49813  50.0000 300.0000 0000000   0.0000 120.0000 13.29142335    12
CTC2_L_00354026-04
1 49814U 24255RS  26070.40846065  .00000000  00000+0  00000-0 0  9991
2 49814  50.0000 300.0000 0000000   0.0000 210.0000 13.29142335    13
CTC2_L_00354027-01
1 49815U 23488HH  26070.40846065  .00000000  00000+0  00000-0 0  9999
2 49815  50.0000 312.0000 0000000   0.0000 312.0000 13.29142335    10
CTC2_L_00354027-02
1 49816U 23210LC  26070.40846065  .00000000  00000+0  00000-0 0  9993
2 49816  50.0000 312.0000 0000000   0.0000  42.0000 13.29142335    11
CTC2_L_00354027-03
1 49817U 23332IB  26070.40846065  .00000000  00000+0  00000-0 0  9999
2 49817  50.0000 312.0000 0000000   0.0000 132.0000 13.29142335    12
CTC2_L_00354027-04
1 49818U 24583XI  26070.40846065  .00000000  00000+0  00000-0 0  9999
2 49818  50.0000 312.0000 0000000   0.0000 222.0000 13.29142335    13
CTC2_L_00354028-01
1 49819U 23216XQ  26070.40846065  .00000000  00000+0  00000-0 0  9992
2 49819  50.0000 324.0000 0000000   0.0000 324.0000 13.29142335    10
CTC2_L_00354028-02
1 49820U 26183EC  26070.40846065  .00000000  00000+0  00000-0 0  9990
2 49820  50.0000 324.0000 0000000   0.0000  54.0000 13.29142335    12
CTC2_L_00354028-03
1 49821U 25156LW  26070.40846065  .00000000  00000+0  00000-0 0  9990
2 49821  50.0000 324.0000 0000000   0.0000 144.0000 13.29142335    13
CTC2_L_00354028-04
1 49822U 23745KM  26070.40846065  .00000000  00000+0  00000-0 0  9993
2 49822  50.0000 324.0000 0000000   0.0000 234.0000 13.29142335    14
CTC2_L_00354029-01
1 49823U 22580VE  26070.40846065  .00000000  00000+0  00000-0 0  9990
2 49823  50.0000 336.0000 0000000   0.0000 336.0000 13.29142335    11
CTC2_L_00354029-02
1 49824U 23203YD  26070.40846065  .00000000  00000+0  00000-0 0  9994
2 49824  50.0000 336.0000 0000000   0.0000  66.0000 13.29142335    12
CTC2_L_00354029-03
1 49825U 26528R   26070.40846065  .00000000  00000+0  00000-0 0  9998
2 49825  50.0000 336.0000 0000000   0.0000 156.0000 13.29142335    13
CTC2_L_00354029-04
1 49826U 23365CN  26070.40846065  .00000000  00000+0  00000-0 0  9995
2 49826  50.0000 336.0000 0000000   0.0000 246.0000 13.29142335    14
CTC2_L_00354030-01
1 49827U 24383HK  26070.40846065  .00000000  00000+0  00000-0 0  9997
2 49827  50.0000 348.0000 0000000   0.0000 348.0000 13.29142335    11
CTC2_L_00354030-02
1 49828U 25108HM  26070.40846065  .00000000  00000+0  00000-0 0  9994
2 49828  50.0000 348.0000 0000000   0.0000  78.0000 13.29142335    12
CTC2_L_00354030-03
1 49829U 26454SS  26070.40846065  .00000000  00000+0  00000-0 0  9990
2 49829  50.0000 348.0000 0000000   0.0000 168.0000 13.29142335    13
CTC2_L_00354030-04
1 49830U 23644GO  26070.40846065  .00000000  00000+0  00000-0 0  9990
2 49830  50.0000 348.0000 0000000   0.0000 258.0000 13.29142335    15
